LUCH 5A                 
1 37951U 11074B   22262.35259520 -.00000052  00000+0  00000+0 0  9999
2 37951   5.2488  95.9007 0004309  53.9932 142.2083  1.00273025 39485
NIGCOMSAT 1R            
1 38014U 11077A   22262.57655758  .00000139  00000+0  00000+0 0  9995
2 38014   0.0372  60.7781 0001892 208.0413 339.6936  1.00271035 39254
FENGYUN 2F              
1 38049U 12002A   22262.59410943 -.00000362  00000+0  00000+0 0  9998
2 38049   4.0165  78.9299 0000864 347.7286 257.5188  1.00282836 39177
WGS F4 (USA 233)        
1 38070U 12003A   22262.53729909 -.00000221  00000+0  00000+0 0  9996
2 38070   0.0193 173.4187 0000565  70.6776  36.1618  1.00270392 30443
SES-4                   
1 38087U 12007A   22262.42479940 -.00000174  00000+0  00000+0 0  9990
2 38087   0.0065 135.1668 0002183  41.0322 313.0467  1.00271342 38785
BEIDOU 11               
1 38091U 12008A   22262.57978399  .00000051  00000+0  00000+0 0  9997
2 38091   1.7697  69.5041 0011272 343.1213 213.3011  1.00275047 38770
MUOS-1                  
1 38093U 12009A   22262.48887465 -.00000130  00000+0  00000+0 0  9992
2 38093   3.0423  34.4199 0051651   2.5091  37.4147  1.00270351 38749
INTELSAT 22 (IS-22)     
1 38098U 12011A   22262.51299255 -.00000065  00000+0  00000+0 0  9995
2 38098   0.0265 117.3140 0003048  64.1013  73.7624  1.00271662 38117
APSTAR 7                
1 38107U 12013A   22262.50743806 -.00000108  00000+0  00000+0 0  9991
2 38107   0.0270 121.9095 0003218  83.4179  52.2438  1.00272314 38109
YAHSAT 1B               
1 38245U 12016A   22262.19910535  .00000120  00000+0  00000+0 0  9990
2 38245   0.0171 172.5852 0000683  66.5171 238.2784  1.00272680 31897
AEHF-2 (USA 235)        
1 38254U 12019A   22262.49206400 -.00000164  00000+0  00000+0 0  9994
2 38254   3.5400  61.3336 0002865 123.1381 256.8664  1.00270823 37154
JCSAT-13                
1 38331U 12023A   22262.52106169 -.00000362  00000+0  00000+0 0  9990
2 38331   0.0100 207.5728 0002781 357.9406 104.4820  1.00272880 37821
VINASAT-2               
1 38332U 12023B   22262.53535700 -.00000335  00000+0  00000+0 0  9999
2 38332   0.0164 263.7993 0001867 277.0862 142.1153  1.00272773 32950
NIMIQ 6                 
1 38342U 12026A   22262.49362487 -.00000180  00000+0  00000+0 0  9996
2 38342   0.0140 244.0918 0002938 301.4319 259.4574  1.00271678 37893
CHINASAT 2A (ZX 2A)     
1 38352U 12028A   22262.53712549 -.00000299  00000+0  00000+0 0  9993
2 38352   0.0477 322.3980 0002796 355.3806 332.2344  1.00269433 37674
INTELSAT 19 (IS-19)     
1 38356U 12030A   22262.45775424 -.00000062  00000+0  00000+0 0  9990
2 38356   0.0169 213.7372 0003017 333.4267 141.9765  1.00273045 36731
ECHOSTAR 17             
1 38551U 12035A   22262.54287545 -.00000081  00000+0  00000+0 0  9995
2 38551   0.0176 173.7054 0002048   1.2119 271.8484  1.00271595 37355
METEOSAT-10 (MSG-3)     
1 38552U 12035B   22262.35475983  .00000055  00000+0  00000+0 0  9990
2 38552   1.6658  46.0869 0001255 140.2802 309.0157  1.00265914 37153
SES-5                   
1 38652U 12036A   22262.28212193  .00000028  00000+0  00000+0 0  9996
2 38652   0.0652 294.5152 0002130 250.9157 279.2850  1.00272057 30787
TIANLIAN 1-03           
1 38730U 12040A   22262.57219757  .00000119  00000+0  00000+0 0  9994
2 38730   2.2497  90.2558 0004565  15.1064 119.4708  1.00270354 37285
INTELSAT 20 (IS-20)     
1 38740U 12043A   22262.15132140 -.00000031  00000+0  00000+0 0  9996
2 38740   0.0112 172.3050 0001853   2.9990 305.7097  1.00271566 37045
HYLAS 2                 
1 38741U 12043B   22262.50257522  .00000148  00000+0  00000+0 0  9996
2 38741   0.0270 264.4245 0001755 272.0365  33.8997  1.00273299 37062
INTELSAT 21 (IS-21)     
1 38749U 12045A   22262.50997604 -.00000291  00000+0  00000+0 0  9998
2 38749   0.0204 159.9532 0002226  30.9530 293.0798  1.00268619 36836
ASTRA 2F                
1 38778U 12051A   22262.50196483  .00000144  00000+0  00000+0 0  9999
2 38778   0.0704 244.1131 0004248 326.1851 356.9645  1.00273440 27420
GSAT-10                 
1 38779U 12051B   22262.56789566 -.00000172  00000+0  00000+0 0  9998
2 38779   0.0243 231.0308 0002887   2.8914  51.9963  1.00272332 36418
INTELSAT 23 (IS-23)     
1 38867U 12057A   22262.48583275 -.00000290  00000+0  00000+0 0  9993
2 38867   0.0527 269.1705 0000433 183.3134  27.8061  1.00269204 36244
BEIDOU 16               
1 38953U 12059A   22262.56829750 -.00000183  00000+0  00000+0 0  9992
2 38953   1.1527  81.2993 0023847 295.4363 270.4780  1.00272620 36203
LUCH 5B                 
1 38977U 12061A   22262.27784911 -.00000138  00000+0  00000+0 0  9998
2 38977   7.4914  61.8920 0005218  99.8431 280.1706  1.00272922 36476
YAMAL 300K              
1 38978U 12061B   22262.54557240  .00000065  00000+0  00000+0 0  9990
2 38978   0.0130 160.5125 0000617  54.4502 162.8295  1.00271415 35928
STAR ONE C3             
1 38991U 12062A   22262.50275480 -.00000255  00000+0  00000+0 0  9997
2 38991   0.0227 145.3293 0002598  64.9368 254.1201  1.00269412 36155
EUTELSAT 21B            
1 38992U 12062B   22262.40188211  .00000124  00000+0  00000+0 0  9996
2 38992   0.0708  17.5420 0002604 159.1811 347.8473  1.00273794 36137
ECHOSTAR 16             
1 39008U 12065A   22262.48408875 -.00000288  00000+0  00000+0 0  9999
2 39008   0.0196 180.8634 0001966 353.4145 296.8741  1.00271359 35929
CHINASAT 12 (ZX 12)     
1 39017U 12067A   22262.58553921 -.00000213  00000+0  00000+0 0  9993
2 39017   0.0211 135.2488 0002857  43.0594 118.4546  1.00271565 36009
EUTELSAT 70B            
1 39020U 12069A   22262.51299255 -.00000050  00000+0  00000+0 0  9998
2 39020   0.0635 359.0671 0005163 202.3754  52.1374  1.00271025 35805
YAMAL 402               
1 39022U 12070A   22262.50728404  .00000080  00000+0  00000+0 0  9996
2 39022   0.0175 171.4146 0003624  13.5722  50.9302  1.00272054 35682
SKYNET 5D               
1 39034U 12075A   22262.50684804  .00000093  00000+0  00000+0 0  9993
2 39034   0.0768  14.3207 0004254 180.8555  38.4009  1.00273600 35456
MEXSAT 3                
1 39035U 12075B   22262.53276882 -.00000032  00000+0  00000+0 0  9994
2 39035   0.0238  90.9313 0002512  90.8105 253.6836  1.00273439 35474
TDRS 11                 
1 39070U 13004A   22262.54902344  .00000075  00000+0  00000+0 0  9992
2 39070   2.8538 348.7731 0005288  82.6624 310.2309  1.00273898 32990
AMAZONAS 3              
1 39078U 13006A   22262.34072057 -.00000288  00000+0  00000+0 0  9996
2 39078   0.0246 201.2705 0005538   2.9051 215.7206  1.00270404 31191
AZERSPACE 1             
1 39079U 13006B   22262.21855287  .00000127  00000+0  00000+0 0  9998
2 39079   0.0137 124.4789 0002005  84.9361 273.3613  1.00272939 35101
SBIRS GEO-2 (USA 241)   
1 39120U 13011A   22262.48871038 -.00000262  00000+0  00000+0 0  9993
2 39120   2.0373  26.6096 0002653 150.0698 319.6336  1.00271377 34888
EUTELSAT 117 WEST A     
1 39122U 13012A   22262.53118838 -.00000019  00000+0  00000+0 0  9994
2 39122   0.0168 168.9492 0002842  16.2866 247.6017  1.00269912 34765
ANIK G1                 
1 39127U 13014A   22262.54129687 -.00000080  00000+0  00000+0 0  9994
2 39127   0.0181 164.4612 0002134  56.0543 225.4844  1.00272840 34540
CHINASAT 11 (ZX 11)     
1 39157U 13020A   22262.08536507 -.00000297  00000+0  00000+0 0  9996
2 39157   0.0645 265.7381 0000814 263.7099 317.1447  1.00271407 34447
EUTELSAT 7B             
1 39163U 13022A   22262.40743663  .00000042  00000+0  00000+0 0  9991
2 39163   0.0665 356.1771 0001023 356.4227 159.3591  1.00272075 34268
WGS F5 (USA 243)        
1 39168U 13024A   22262.48591995 -.00000290  00000+0  00000+0 0  9991
2 39168   0.0183 163.2163 0000492  98.5977 218.9895  1.00270675 33470
SES-6                   
1 39172U 13026A   22262.48827437 -.00000267  00000+0  00000+0 0  9995
2 39172   0.0499 302.9170 0002326 248.0698 302.6801  1.00273138 34022
IRNSS-1A                
1 39199U 13034A   22262.07699383  .00000089  00000+0  00000+0 0  9996
2 39199  32.6336  83.9533 0020220 176.4047 180.3717  1.00271206 33655
MUOS-2                  
1 39206U 13036A   22262.54545954  .00000060  00000+0  00000+0 0  9992
2 39206   2.7730  26.1224 0056613 178.2433 173.3882  1.00272146 33480
ALPHASAT                
1 39215U 13038A   22262.50135442  .00000130  00000+0  00000+0 0  9995
2 39215   2.7437  12.8486 0003679 188.2566   2.6274  1.00273149 33560
INSAT-3D                
1 39216U 13038B   22262.50743806 -.00000162  00000+0  00000+0 0  9991
2 39216   0.0134 146.9880 0001782  68.8392  47.3259  1.00273003 33597
WGS F6 (USA 244)        
1 39222U 13041A   22262.44942010  .00000083  00000+0  00000+0 0  9994
2 39222   0.0183 163.4497 0000474 101.4926 119.9926  1.00274189 32345
ES'HAIL 1               
1 39233U 13044A   22262.50144162  .00000137  00000+0  00000+0 0  9998
2 39233   0.0475 359.7159 0001877 180.1947  24.4805  1.00271945 32928
GSAT-7                  
1 39234U 13044B   22262.51112087 -.00000084  00000+0  00000+0 0  9993
2 39234   0.0165 177.8499 0008024  73.5531   4.9955  1.00272315 31623
AMOS-4                  
1 39237U 13045A   22262.51299255  .00000001  00000+0  00000+0 0  9998
2 39237   0.0207 143.4977 0001195  87.5602  17.0170  1.00271056 33255
AEHF-3 (USA 246)        
1 39256U 13050A   22262.57397463  .00000129  00000+0  00000+0 0  9992
2 39256   1.9174  72.6554 0055081 179.5218 157.8972  1.00267882 31962
ASTRA 2E                
1 39285U 13056A   22262.28683076  .00000144  00000+0  00000+0 0  9993
2 39285   0.0777 325.6865 0002868 222.2599 301.9796  1.00274223 32731
FM-6                    
1 39360U 13058A   22262.53118743 -.00000023  00000+0  00000+0 0  9998
2 39360   0.0485 270.7867 0000631 168.3970 354.3075  1.00270362 32352
RADUGA-1M 3             
1 39375U 13062A   22262.15605046  .00000149  00000+0  00000+0 0  9992
2 39375   2.4647  88.6531 0001879 150.2431 210.3335  1.00273521 32423
